{"type": "FeatureCollection", "features": [ {"type": "Feature", "properties": {"norad_id": 66650, "name": "BEE-1000", "group": "last-30-days", "lat": 55.502861310917545, "lon": -99.76757101384463, "alt_km": 594.1503818321999, "timestamp": "2025-12-10T09:57:43.490324+00:00", "meta": {"OBJECT_NAME": "BEE-1000", "OBJECT_ID": "2025-274A", "EPOCH": "2025-12-09T17:36:38.916000", "MEAN_MOTION": 14.9164457, "ECCENTRICITY": 0.0010439, "INCLINATION": 97.7385, "RA_OF_ASC_NODE": 270.9766, "ARG_OF_PERICENTER": 263.1107, "MEAN_ANOMALY": 96.8924, "EPHEMERIS_TYPE": 0, "CLASSIFICATION_TYPE": "U", "NORAD_CAT_ID": 66650, "ELEMENT_SET_NO": 999, "REV_AT_EPOCH": 195, "BSTAR": 0.00029143, "MEAN_MOTION_DOT": 2.875e-05, "MEAN_MOTION_DDOT": 0}, "tle": {"line1": "1 66650U 25274A   25343.73378375  .00002875  00000+0  29143-3 0  9996", "line2": "2 66650  97.7385 270.9766 0010439 263.1107  96.8924 14.91644570  1952"}}, "geometry": {"type": "Point", "coordinates": [-99.76757101384463, 55.502861310917545]}}, {"type": "Feature", "properties": {"norad_id": 66651, "name": "2025-274B", "group": "last-30-days", "lat": 59.26818399134576, "lon": -101.57546209580566, "alt_km": 593.747734203087, "timestamp": "2025-12-10T09:57:43.490338+00:00", "meta": {"OBJECT_NAME": "2025-274B", "OBJECT_ID": "2025-274B", "EPOCH": "2025-12-09T17:35:40.877664", "MEAN_MOTION": 14.91760107, "ECCENTRICITY": 0.001074, "INCLINATION": 97.7381, "RA_OF_ASC_NODE": 270.9768, "ARG_OF_PERICENTER": 262.2658, "MEAN_ANOMALY": 97.7341, "EPHEMERIS_TYPE": 0, "CLASSIFICATION_TYPE": "U", "NORAD_CAT_ID": 66651, "ELEMENT_SET_NO": 999, "REV_AT_EPOCH": 195, "BSTAR": 0.0006145, "MEAN_MOTION_DOT": 6.145e-05, "MEAN_MOTION_DDOT": 0}, "tle": {"line1": "1 66651U 25274B   25343.73311201  .00006145  00000+0  61450-3 0  9993", "line2": "2 66651  97.7381 270.9768 0010740 262.2658  97.7341 14.91760107  1955"}}, "geometry": {"type": "Point", "coordinates": [-101.57546209580566, 59.26818399134576]}}, {"type": "Feature", "properties": {"norad_id": 66652, "name": "2025-274C", "group": "last-30-days", "lat": 65.81193817637133, "lon": -105.97288776819737, "alt_km": 592.4818571964634, "timestamp": "2025-12-10T09:57:43.490349+00:00", "meta": {"OBJECT_NAME": "2025-274C", "OBJECT_ID": "2025-274C", "EPOCH": "2025-12-09T12:44:10.519584", "MEAN_MOTION": 14.91874076, "ECCENTRICITY": 0.0010407, "INCLINATION": 97.7387, "RA_OF_ASC_NODE": 270.7817, "ARG_OF_PERICENTER": 269.9894, "MEAN_ANOMALY": 90.0132, "EPHEMERIS_TYPE": 0, "CLASSIFICATION_TYPE": "U", "NORAD_CAT_ID": 66652, "ELEMENT_SET_NO": 999, "REV_AT_EPOCH": 192, "BSTAR": 0.00037452, "MEAN_MOTION_DOT": 3.732e-05, "MEAN_MOTION_DDOT": 0}, "tle": {"line1": "1 66652U 25274C   25343.53067731  .00003732  00000+0  37452-3 0  9992", "line2": "2 66652  97.7387 270.7817 0010407 269.9894  90.0132 14.91874076  1923"}}, "geometry": {"type": "Point", "coordinates": [-105.97288776819737, 65.81193817637133]}}, {"type": "Feature", "properties": {"norad_id": 66653, "name": "2025-274D", "group": "last-30-days", "lat": 66.11662184427861, "lon": -106.23513781832013, "alt_km": 593.1958635227957, "timestamp": "2025-12-10T09:57:43.490359+00:00", "meta": {"OBJECT_NAME": "2025-274D", "OBJECT_ID": "2025-274D", "EPOCH": "2025-12-09T12:44:05.312256", "MEAN_MOTION": 14.91878474, "ECCENTRICITY": 0.001128, "INCLINATION": 97.7386, "RA_OF_ASC_NODE": 270.7814, "ARG_OF_PERICENTER": 265.8961, "MEAN_ANOMALY": 94.0969, "EPHEMERIS_TYPE": 0, "CLASSIFICATION_TYPE": "U", "NORAD_CAT_ID": 66653, "ELEMENT_SET_NO": 999, "REV_AT_EPOCH": 192, "BSTAR": 0.00038978, "MEAN_MOTION_DOT": 3.888e-05, "MEAN_MOTION_DDOT": 0}, "tle": {"line1": "1 66653U 25274D   25343.53061704  .00003888  00000+0  38978-3 0  9993", "line2": "2 66653  97.7386 270.7814 0011280 265.8961  94.0969 14.91878474  1928"}}, "geometry": {"type": "Point", "coordinates": [-106.23513781832013, 66.11662184427861]}}, {"type": "Feature", "properties": {"norad_id": 66654, "name": "JACK E", "group": "last-30-days", "lat": 73.65433591111832, "lon": -115.97026459231662, "alt_km": 592.6335741578705, "timestamp": "2025-12-10T09:57:43.490369+00:00", "meta": {"OBJECT_NAME": "JACK E", "OBJECT_ID": "2025-274E", "EPOCH": "2025-12-09T09:28:53.341248", "MEAN_MOTION": 14.9205262, "ECCENTRICITY": 0.00118648, "INCLINATION": 97.7388, "RA_OF_ASC_NODE": 270.6521, "ARG_OF_PERICENTER": 268.0515, "MEAN_ANOMALY": 91.9345, "EPHEMERIS_TYPE": 0, "CLASSIFICATION_TYPE": "U", "NORAD_CAT_ID": 66654, "ELEMENT_SET_NO": 999, "REV_AT_EPOCH": 190, "BSTAR": 0.00043977089, "MEAN_MOTION_DOT": 4.414e-05, "MEAN_MOTION_DDOT": 0}, "tle": {"line1": "1 66654U 25274E   25343.39506182  .00004414  00000+0  43977-3 0  9993", "line2": "2 66654  97.7388 270.6521 0011864 268.0515  91.9345 14.92052620  1903"}}, "geometry": {"type": "Point", "coordinates": [-115.97026459231662, 73.65433591111832]}}, {"type": "Feature", "properties": {"norad_id": 66655, "name": "2025-274F", "group": "last-30-days", "lat": 82.0246656356003, "lon": -164.24647293883086, "alt_km": 584.9567085289618, "timestamp": "2025-12-10T09:57:43.490381+00:00", "meta": {"OBJECT_NAME": "2025-274F", "OBJECT_ID": "2025-274F", "EPOCH": "2025-12-08T18:57:10.718496", "MEAN_MOTION": 14.92504145, "ECCENTRICITY": 0.00054909, "INCLINATION": 97.7329, "RA_OF_ASC_NODE": 270.0601, "ARG_OF_PERICENTER": 323.8556, "MEAN_ANOMALY": 36.2292, "EPHEMERIS_TYPE": 0, "CLASSIFICATION_TYPE": "U", "NORAD_CAT_ID": 66655, "ELEMENT_SET_NO": 999, "REV_AT_EPOCH": 181, "BSTAR": 0.001516128, "MEAN_MOTION_DOT": 0.00015539, "MEAN_MOTION_DDOT": 0}, "tle": {"line1": "1 66655U 25274F   25342.78970739  .00015539  00000+0  15161-2 0  9992", "line2": "2 66655  97.7329 270.0601 0005490 323.8556  36.2292 14.92504145  1812"}}, "geometry": {"type": "Point", "coordinates": [-164.24647293883086, 82.0246656356003]}}, {"type": "Feature", "properties": {"norad_id": 66656, "name": "2025-274G", "group": "last-30-days", "lat": 80.55989684602375, "lon": -143.21270868102388, "alt_km": 592.2103976732815, "timestamp": "2025-12-10T09:57:43.490392+00:00", "meta": {"OBJECT_NAME": "2025-274G", "OBJECT_ID": "2025-274G", "EPOCH": "2025-12-09T17:29:26.764800", "MEAN_MOTION": 14.92244035, "ECCENTRICITY": 0.0012484, "INCLINATION": 97.7385, "RA_OF_ASC_NODE": 270.9831, "ARG_OF_PERICENTER": 268.558, "MEAN_ANOMALY": 91.4209, "EPHEMERIS_TYPE": 0, "CLASSIFICATION_TYPE": "U", "NORAD_CAT_ID": 66656, "ELEMENT_SET_NO": 999, "REV_AT_EPOCH": 195, "BSTAR": 0.00047846, "MEAN_MOTION_DOT": 4.831e-05, "MEAN_MOTION_DDOT": 0}, "tle": {"line1": "1 66656U 25274G   25343.72878200  .00004831  00000+0  47846-3 0  9997", "line2": "2 66656  97.7385 270.9831 0012484 268.5580  91.4209 14.92244035  1957"}}, "geometry": {"type": "Point", "coordinates": [-143.21270868102388, 80.55989684602375]}}, {"type": "Feature", "properties": {"norad_id": 66657, "name": "SPIRONE", "group": "last-30-days", "lat": 81.52154818493638, "lon": 157.47184430136764, "alt_km": 590.3827742061321, "timestamp": "2025-12-10T09:57:43.490402+00:00", "meta": {"OBJECT_NAME": "SPIRONE", "OBJECT_ID": "2025-274H", "EPOCH": "2025-12-09T20:40:17.598720", "MEAN_MOTION": 14.92423884, "ECCENTRICITY": 0.0010926, "INCLINATION": 97.7383, "RA_OF_ASC_NODE": 271.1165, "ARG_OF_PERICENTER": 286.8591, "MEAN_ANOMALY": 73.143, "EPHEMERIS_TYPE": 0, "CLASSIFICATION_TYPE": "U", "NORAD_CAT_ID": 66657, "ELEMENT_SET_NO": 999, "REV_AT_EPOCH": 197, "BSTAR": 0.00042537, "MEAN_MOTION_DOT": 4.307e-05, "MEAN_MOTION_DDOT": 0}, "tle": {"line1": "1 66657U 25274H   25343.86131480  .00004307  00000+0  42537-3 0  9995", "line2": "2 66657  97.7383 271.1165 0010926 286.8591  73.1430 14.92423884  1979"}}, "geometry": {"type": "Point", "coordinates": [157.47184430136764, 81.52154818493638]}}, {"type": "Feature", "properties": {"norad_id": 66658, "name": "2025-274J", "group": "last-30-days", "lat": 75.67718766667181, "lon": 123.84487564855576, "alt_km": 590.6439409431505, "timestamp": "2025-12-10T09:57:43.490418+00:00", "meta": {"OBJECT_NAME": "2025-274J", "OBJECT_ID": "2025-274J", "EPOCH": "2025-12-10T01:27:40.825152", "MEAN_MOTION": 14.92597463, "ECCENTRICITY": 0.0011512, "INCLINATION": 97.7384, "RA_OF_ASC_NODE": 271.3164, "ARG_OF_PERICENTER": 289.1224, "MEAN_ANOMALY": 70.8749, "EPHEMERIS_TYPE": 0, "CLASSIFICATION_TYPE": "U", "NORAD_CAT_ID": 66658, "ELEMENT_SET_NO": 999, "REV_AT_EPOCH": 200, "BSTAR": 0.00040856, "MEAN_MOTION_DOT": 4.153e-05, "MEAN_MOTION_DDOT": 0}, "tle": {"line1": "1 66658U 25274J   25344.06088918  .00004153  00000+0  40856-3 0  9997", "line2": "2 66658  97.7384 271.3164 0011512 289.1224  70.8749 14.92597463  2000"}}, "geometry": {"type": "Point", "coordinates": [123.84487564855576, 75.67718766667181]}}, {"type": "Feature", "properties": {"norad_id": 66659, "name": "JACK K", "group": "last-30-days", "lat": 67.43544058646565, "lon": 110.77076372266117, "alt_km": 591.2350774457655, "timestamp": "2025-12-10T09:57:43.490430+00:00", "meta": {"OBJECT_NAME": "JACK K", "OBJECT_ID": "2025-274K", "EPOCH": "2025-12-09T20:35:42.618624", "MEAN_MOTION": 14.92781101, "ECCENTRICITY": 0.0012255, "INCLINATION": 97.7386, "RA_OF_ASC_NODE": 271.1212, "ARG_OF_PERICENTER": 291.2442, "MEAN_ANOMALY": 68.7468, "EPHEMERIS_TYPE": 0, "CLASSIFICATION_TYPE": "U", "NORAD_CAT_ID": 66659, "ELEMENT_SET_NO": 999, "REV_AT_EPOCH": 197, "BSTAR": 0.00038031, "MEAN_MOTION_DOT": 3.88e-05, "MEAN_MOTION_DDOT": 0}, "tle": {"line1": "1 66659U 25274K   25343.85813216  .00003880  00000+0  38031-3 0  9999", "line2": "2 66659  97.7386 271.1212 0012255 291.2442  68.7468 14.92781101  1979"}}, "geometry": {"type": "Point", "coordinates": [110.77076372266117, 67.43544058646565]}}]}